{"fetched_at":"2026-03-29T16:36:15Z","count":15609,"tles":[{"name":"TIANQI-37","line1":"1 67476U 26010A   26087.70277191  .00000006  00000+0  92452-4 0  9997","line2":"2 67476  44.9818  79.8355 0013200 302.5430  57.4128 13.99136553 10122","category":"Other"}]}